{"fetched_at":"2026-07-15T17:47:18.005Z","source":"https://celestrak.org/NORAD/elements/gp.php?NAME=JILIN&FORMAT=JSON","constellation":"jilin-1-early","records":[{"OBJECT_NAME":"JILIN-1","OBJECT_ID":"2015-057D","EPOCH":"2026-07-15T04:09:24.022080","CLASSIFICATION_TYPE":"U","MEAN_MOTION":14.78201325,"ECCENTRICITY":0.0017228,"INCLINATION":97.652,"RA_OF_ASC_NODE":194.1522,"ARG_OF_PERICENTER":166.9666,"MEAN_ANOMALY":193.1994,"EPHEMERIS_TYPE":0,"NORAD_CAT_ID":40961,"ELEMENT_SET_NO":999,"REV_AT_EPOCH":57974,"BSTAR":0.00005608,"MEAN_MOTION_DOT":0.00000359,"MEAN_MOTION_DDOT":0},{"OBJECT_NAME":"JILIN-1 03","OBJECT_ID":"2017-002B","EPOCH":"2026-07-15T04:35:15.886176","CLASSIFICATION_TYPE":"U","MEAN_MOTION":15.42230935,"ECCENTRICITY":0.0007877,"INCLINATION":97.1946,"RA_OF_ASC_NODE":202.8936,"ARG_OF_PERICENTER":79.5052,"MEAN_ANOMALY":280.7082,"EPHEMERIS_TYPE":0,"NORAD_CAT_ID":41914,"ELEMENT_SET_NO":999,"REV_AT_EPOCH":52617,"BSTAR":0.00017915,"MEAN_MOTION_DOT":0.00007618,"MEAN_MOTION_DDOT":0},{"OBJECT_NAME":"JILIN-1 04","OBJECT_ID":"2017-074A","EPOCH":"2026-07-15T04:05:18.696192","CLASSIFICATION_TYPE":"U","MEAN_MOTION":15.43130795,"ECCENTRICITY":0.0005238,"INCLINATION":97.4882,"RA_OF_ASC_NODE":306.545,"ARG_OF_PERICENTER":100.2894,"MEAN_ANOMALY":259.8944,"EPHEMERIS_TYPE":0,"NORAD_CAT_ID":43022,"ELEMENT_SET_NO":999,"REV_AT_EPOCH":47858,"BSTAR":0.00019223,"MEAN_MOTION_DOT":0.00008422,"MEAN_MOTION_DDOT":0},{"OBJECT_NAME":"JILIN-1 05","OBJECT_ID":"2017-074B","EPOCH":"2026-07-15T04:03:18.539712","CLASSIFICATION_TYPE":"U","MEAN_MOTION":15.34284896,"ECCENTRICITY":0.0006447,"INCLINATION":97.4885,"RA_OF_ASC_NODE":302.7114,"ARG_OF_PERICENTER":124.6472,"MEAN_ANOMALY":235.5379,"EPHEMERIS_TYPE":0,"NORAD_CAT_ID":43023,"ELEMENT_SET_NO":999,"REV_AT_EPOCH":47829,"BSTAR":0.00014312,"MEAN_MOTION_DOT":0.0000467,"MEAN_MOTION_DDOT":0},{"OBJECT_NAME":"JILIN-1 06","OBJECT_ID":"2017-074C","EPOCH":"2026-07-15T05:02:32.190720","CLASSIFICATION_TYPE":"U","MEAN_MOTION":15.33995965,"ECCENTRICITY":0.0008088,"INCLINATION":97.4811,"RA_OF_ASC_NODE":299.7251,"ARG_OF_PERICENTER":134.0779,"MEAN_ANOMALY":226.113,"EPHEMERIS_TYPE":0,"NORAD_CAT_ID":43024,"ELEMENT_SET_NO":999,"REV_AT_EPOCH":47813,"BSTAR":0.00010708,"MEAN_MOTION_DOT":0.00003443,"MEAN_MOTION_DDOT":0},{"OBJECT_NAME":"JILIN-1 07","OBJECT_ID":"2018-008E","EPOCH":"2026-07-15T04:33:59.143104","CLASSIFICATION_TYPE":"U","MEAN_MOTION":15.35164252,"ECCENTRICITY":0.000674,"INCLINATION":97.1763,"RA_OF_ASC_NODE":215.3792,"ARG_OF_PERICENTER":328.1661,"MEAN_ANOMALY":31.9175,"EPHEMERIS_TYPE":0,"NORAD_CAT_ID":43159,"ELEMENT_SET_NO":999,"REV_AT_EPOCH":46929,"BSTAR":0.00014689,"MEAN_MOTION_DOT":0.00004938,"MEAN_MOTION_DDOT":0},{"OBJECT_NAME":"JILIN-1 08","OBJECT_ID":"2018-008F","EPOCH":"2026-07-15T05:02:50.118720","CLASSIFICATION_TYPE":"U","MEAN_MOTION":15.34009973,"ECCENTRICITY":0.0005306,"INCLINATION":97.1801,"RA_OF_ASC_NODE":214.6834,"ARG_OF_PERICENTER":352.5568,"MEAN_ANOMALY":7.5596,"EPHEMERIS_TYPE":0,"NORAD_CAT_ID":43160,"ELEMENT_SET_NO":999,"REV_AT_EPOCH":46924,"BSTAR":0.0001032,"MEAN_MOTION_DOT":0.0000332,"MEAN_MOTION_DDOT":0},{"OBJECT_NAME":"JILIN-1 09","OBJECT_ID":"2019-005B","EPOCH":"2026-07-15T05:06:04.231872","CLASSIFICATION_TYPE":"U","MEAN_MOTION":15.20740936,"ECCENTRICITY":0.0002353,"INCLINATION":97.4749,"RA_OF_ASC_NODE":290.9404,"ARG_OF_PERICENTER":36.612,"MEAN_ANOMALY":323.5275,"EPHEMERIS_TYPE":0,"NORAD_CAT_ID":43943,"ELEMENT_SET_NO":999,"REV_AT_EPOCH":41340,"BSTAR":0.00011679,"MEAN_MOTION_DOT":0.000025,"MEAN_MOTION_DDOT":0},{"OBJECT_NAME":"JILIN-1 10","OBJECT_ID":"2019-005E","EPOCH":"2026-07-15T04:39:36.315648","CLASSIFICATION_TYPE":"U","MEAN_MOTION":15.26006585,"ECCENTRICITY":0.0008566,"INCLINATION":97.48,"RA_OF_ASC_NODE":295.0049,"ARG_OF_PERICENTER":169.7909,"MEAN_ANOMALY":190.3504,"EPHEMERIS_TYPE":0,"NORAD_CAT_ID":43946,"ELEMENT_SET_NO":999,"REV_AT_EPOCH":41358,"BSTAR":0.00012899,"MEAN_MOTION_DOT":0.00003245,"MEAN_MOTION_DDOT":0}]}
